start=new Date('2022-12-10T00:00:00.000Z').valueOf();
sats=[{"LAUNCH_DATE":"2022-10-05","TLE_LINE2":"2 53965  53.2164 152.2996 0002115  52.6898 307.4287 15.08843042 10144","BSTAR":"-0.00000469470000","RCS_SIZE":"LARGE","FILE":"3684925","TLE_LINE1":"1 53965U 22125B   22342.82094438 -.00000363  00000-0 -46947-5 0  9990","EPOCH":"2022-12-08T19:42:09.594432","APOAPSIS":"541.199","MEAN_ANOMALY":"307.4287","PERIOD":"95.437","TIME_SYSTEM":"UTC","EPHEMERIS_TYPE":"0","ECCENTRICITY":"0.00021150","CLASSIFICATION_TYPE":"U","SEMIMAJOR_AXIS":"6917.871","GP_ID":"219811047","SITE":"AFWTR","OBJECT_ID":"2022-125B","REV_AT_EPOCH":"1014","PERIAPSIS":"538.273","REF_FRAME":"TEME","INCLINATION":"53.2164","OBJECT_NAME":"STARLINK-4578","NORAD_CAT_ID":"53965","OBJECT_TYPE":"PAYLOAD","MEAN_MOTION_DDOT":"0.0000000000000","RA_OF_ASC_NODE":"152.2996","MEAN_MOTION":"15.08843042","ELEMENT_SET_NO":"999","MEAN_ELEMENT_THEORY":"SGP4","CENTER_NAME":"EARTH","COUNTRY_CODE":"US","ARG_OF_PERICENTER":"52.6898","DECAY_DATE":null,"MEAN_MOTION_DOT":"-0.00000363"},{"MEAN_ANOMALY":"322.2069","LAUNCH_DATE":"2022-10-05","BSTAR":"0.00034239000000","TLE_LINE2":"2 53966  53.2172 149.3036 0001848  37.9053 322.2069 15.08871798 10318","RCS_SIZE":"LARGE","FILE":"3685286","TLE_LINE1":"1 53966U 22125C   22343.47963386  .00005170  00000-0  34239-3 0  9998","EPOCH":"2022-12-09T11:30:40.365504","APOAPSIS":"540.927","GP_ID":"219845612","SEMIMAJOR_AXIS":"6917.783","SITE":"AFWTR","PERIOD":"95.436","TIME_SYSTEM":"UTC","EPHEMERIS_TYPE":"0","ECCENTRICITY":"0.00018480","CLASSIFICATION_TYPE":"U","REF_FRAME":"TEME","INCLINATION":"53.2172","OBJECT_ID":"2022-125C","REV_AT_EPOCH":"1031","PERIAPSIS":"538.370","ELEMENT_SET_NO":"999","MEAN_MOTION":"15.08871798","MEAN_ELEMENT_THEORY":"SGP4","CENTER_NAME":"EARTH","COUNTRY_CODE":"US","ARG_OF_PERICENTER":"37.9053","DECAY_DATE":null,"MEAN_MOTION_DOT":"0.00005170","OBJECT_NAME":"STARLINK-4635","OBJECT_TYPE":"PAYLOAD","NORAD_CAT_ID":"53966","RA_OF_ASC_NODE":"149.3036","MEAN_MOTION_DDOT":"0.0000000000000"},{"MEAN_ELEMENT_THEORY":"SGP4","COUNTRY_CODE":"US","CENTER_NAME":"EARTH","ELEMENT_SET_NO":"999","MEAN_MOTION":"15.08828588","MEAN_MOTION_DOT":"-0.00001630","ARG_OF_PERICENTER":"6.6439","DECAY_DATE":null,"OBJECT_NAME":"STARLINK-4634","OBJECT_TYPE":"PAYLOAD","NORAD_CAT_ID":"53967","MEAN_MOTION_DDOT":"0.0000000000000","RA_OF_ASC_NODE":"149.2782","REF_FRAME":"TEME","INCLINATION":"53.2171","OBJECT_ID":"2022-125D","PERIAPSIS":"538.440","REV_AT_EPOCH":"1031","SEMIMAJOR_AXIS":"6917.915","GP_ID":"219845716","SITE":"AFWTR","PERIOD":"95.438","EPHEMERIS_TYPE":"0","ECCENTRICITY":"0.00019380","CLASSIFICATION_TYPE":"U","TIME_SYSTEM":"UTC","MEAN_ANOMALY":"353.4579","TLE_LINE2":"2 53967  53.2171 149.2782 0001938   6.6439 353.4579 15.08828588 10317","BSTAR":"-0.00008433100000","LAUNCH_DATE":"2022-10-05","TLE_LINE1":"1 53967U 22125D   22343.47598685 -.00001630  00000-0 -84331-4 0  9993","EPOCH":"2022-12-09T11:25:25.263840","APOAPSIS":"541.121","RCS_SIZE":"LARGE","FILE":"3685286"},{"COUNTRY_CODE":"US","CENTER_NAME":"EARTH","MEAN_ELEMENT_THEORY":"SGP4","ELEMENT_SET_NO":"999","MEAN_MOTION":"15.08855331","MEAN_MOTION_DOT":"0.00001357","ARG_OF_PERICENTER":"72.1852","DECAY_DATE":null,"OBJECT_NAME":"STARLINK-4629","RA_OF_ASC_NODE":"150.3940","MEAN_MOTION_DDOT":"0.0000000000000","NORAD_CAT_ID":"53968","OBJECT_TYPE":"PAYLOAD","INCLINATION":"53.2175","REF_FRAME":"TEME","OBJECT_ID":"2022-125E","PERIAPSIS":"538.731","REV_AT_EPOCH":"1020","GP_ID":"219844399","SEMIMAJOR_AXIS":"6917.834","SITE":"AFWTR","PERIOD":"95.437","ECCENTRICITY":"0.00013980","CLASSIFICATION_TYPE":"U","EPHEMERIS_TYPE":"0","TIME_SYSTEM":"UTC","MEAN_ANOMALY":"287.9293","BSTAR":"0.00010332000000","TLE_LINE2":"2 53968  53.2175 150.3940 0001398  72.1852 287.9293 15.08855331 10206","LAUNCH_DATE":"2022-10-05","APOAPSIS":"540.666","TLE_LINE1":"1 53968U 22125E   22343.19994953  .00001357  00000-0  10332-3 0  9994","EPOCH":"2022-12-09T04:47:55.639392","FILE":"3685263","RCS_SIZE":"LARGE"},{"OBJECT_ID":"2022-125F","REV_AT_EPOCH":"1031","PERIAPSIS":"537.706","INCLINATION":"53.2172","REF_FRAME":"TEME","OBJECT_NAME":"STARLINK-4468","RA_OF_ASC_NODE":"149.2552","MEAN_MOTION_DDOT":"0.0000000000000","OBJECT_TYPE":"PAYLOAD","NORAD_CAT_ID":"53969","MEAN_MOTION":"15.08954093","ELEMENT_SET_NO":"999","COUNTRY_CODE":"US","CENTER_NAME":"EARTH","MEAN_ELEMENT_THEORY":"SGP4","ARG_OF_PERICENTER":"348.2875","DECAY_DATE":null,"MEAN_MOTION_DOT":"0.00005939","LAUNCH_DATE":"2022-10-05","TLE_LINE2":"2 53969  53.2172 149.2552 0002444 348.2875  11.8060 15.08954093 10318","BSTAR":"0.00038971000000","FILE":"3685305","RCS_SIZE":"LARGE","TLE_LINE1":"1 53969U 22125F   22343.47222070  .00005939  00000-0  38971-3 0  9999","APOAPSIS":"541.087","EPOCH":"2022-12-09T11:19:59.868480","MEAN_ANOMALY":"11.8060","PERIOD":"95.430","TIME_SYSTEM":"UTC","CLASSIFICATION_TYPE":"U","ECCENTRICITY":"0.00024440","EPHEMERIS_TYPE":"0","GP_ID":"219846146","SEMIMAJOR_AXIS":"6917.532","SITE":"AFWTR"},{"COUNTRY_CODE":"US","CENTER_NAME":"EARTH","MEAN_ELEMENT_THEORY":"SGP4","ELEMENT_SET_NO":"999","MEAN_MOTION":"15.08839036","MEAN_MOTION_DOT":"-0.00000183","DECAY_DATE":null,"ARG_OF_PERICENTER":"71.1799","OBJECT_NAME":"STARLINK-4567","RA_OF_ASC_NODE":"145.9759","MEAN_MOTION_DDOT":"0.0000000000000","NORAD_CAT_ID":"53970","OBJECT_TYPE":"PAYLOAD","INCLINATION":"53.2163","REF_FRAME":"TEME","OBJECT_ID":"2022-125G","PERIAPSIS":"538.702","REV_AT_EPOCH":"1026","SEMIMAJOR_AXIS":"6917.883","GP_ID":"219845416","SITE":"AFWTR","PERIOD":"95.438","ECCENTRICITY":"0.00015130","CLASSIFICATION_TYPE":"U","EPHEMERIS_TYPE":"0","TIME_SYSTEM":"UTC","MEAN_ANOMALY":"288.9357","BSTAR":"0.00000661690000","TLE_LINE2":"2 53970  53.2163 145.9759 0001513  71.1799 288.9357 15.08839036 10264","LAUNCH_DATE":"2022-10-05","EPOCH":"2022-12-09T04:15:37.418688","TLE_LINE1":"1 53970U 22125G   22343.17751642 -.00000183  00000-0  66169-5 0  9999","APOAPSIS":"540.795","FILE":"3685263","RCS_SIZE":"LARGE"},{"MEAN_ANOMALY":"320.3113","LAUNCH_DATE":"2022-10-05","BSTAR":"-0.00005198100000","TLE_LINE2":"2 53971  53.2159 149.2301 0002041  39.8028 320.3113 15.08836342 10249","RCS_SIZE":"LARGE","FILE":"3685263","EPOCH":"2022-12-09T11:14:47.330304","TLE_LINE1":"1 53971U 22125H   22343.46860336 -.00001115  00000-0 -51981-4 0  9995","APOAPSIS":"541.169","GP_ID":"219845211","SEMIMAJOR_AXIS":"6917.892","SITE":"AFWTR","PERIOD":"95.438","TIME_SYSTEM":"UTC","EPHEMERIS_TYPE":"0","CLASSIFICATION_TYPE":"U","ECCENTRICITY":"0.00020410","REF_FRAME":"TEME","INCLINATION":"53.2159","OBJECT_ID":"2022-125H","REV_AT_EPOCH":"1024","PERIAPSIS":"538.345","ELEMENT_SET_NO":"999","MEAN_MOTION":"15.08836342","MEAN_ELEMENT_THEORY":"SGP4","CENTER_NAME":"EARTH","COUNTRY_CODE":"US","DECAY_DATE":null,"ARG_OF_PERICENTER":"39.8028","MEAN_MOTION_DOT":"-0.00001115","OBJECT_NAME":"STARLINK-4639","NORAD_CAT_ID":"53971","OBJECT_TYPE":"PAYLOAD","MEAN_MOTION_DDOT":"0.0000000000000","RA_OF_ASC_NODE":"149.2301"},{"MEAN_ANOMALY":"111.0007","BSTAR":"-0.00193960000000","TLE_LINE2":"2 53972  53.2163 144.6548 0001039 249.0874 111.0007 15.08585718 10309","LAUNCH_DATE":"2022-10-05","TLE_LINE1":"1 53972U 22125J   22343.42059544 -.00030810  00000-0 -19396-2 0  9999","EPOCH":"2022-12-09T10:05:39.446016","APOAPSIS":"541.242","FILE":"3685263","RCS_SIZE":"LARGE","GP_ID":"219843979","SEMIMAJOR_AXIS":"6918.658","SITE":"AFWTR","PERIOD":"95.454","ECCENTRICITY":"0.00010390","CLASSIFICATION_TYPE":"U","EPHEMERIS_TYPE":"0","TIME_SYSTEM":"UTC","INCLINATION":"53.2163","REF_FRAME":"TEME","OBJECT_ID":"2022-125J","PERIAPSIS":"539.804","REV_AT_EPOCH":"1030","CENTER_NAME":"EARTH","COUNTRY_CODE":"US","MEAN_ELEMENT_THEORY":"SGP4","MEAN_MOTION":"15.08585718","ELEMENT_SET_NO":"999","MEAN_MOTION_DOT":"-0.00030810","ARG_OF_PERICENTER":"249.0874","DECAY_DATE":null,"OBJECT_NAME":"STARLINK-5157","MEAN_MOTION_DDOT":"0.0000000000000","RA_OF_ASC_NODE":"144.6548","OBJECT_TYPE":"PAYLOAD","NORAD_CAT_ID":"53972"},{"OBJECT_ID":"2022-125K","PERIAPSIS":"538.459","REV_AT_EPOCH":"1024","INCLINATION":"53.2167","REF_FRAME":"TEME","OBJECT_NAME":"STARLINK-5156","MEAN_MOTION_DDOT":"0.0000000000000","RA_OF_ASC_NODE":"149.1827","OBJECT_TYPE":"PAYLOAD","NORAD_CAT_ID":"53973","CENTER_NAME":"EARTH","COUNTRY_CODE":"US","MEAN_ELEMENT_THEORY":"SGP4","MEAN_MOTION":"15.08836527","ELEMENT_SET_NO":"999","MEAN_MOTION_DOT":"-0.00003883","DECAY_DATE":null,"ARG_OF_PERICENTER":"2.0623","BSTAR":"-0.00022601000000","TLE_LINE2":"2 53973  53.2167 149.1827 0001875   2.0623 358.0377 15.08836527 10244","LAUNCH_DATE":"2022-10-05","EPOCH":"2022-12-09T11:04:11.845344","TLE_LINE1":"1 53973U 22125K   22343.46124821 -.00003883  00000-0 -22601-3 0  9999","APOAPSIS":"541.053","FILE":"3685263","RCS_SIZE":"LARGE","MEAN_ANOMALY":"358.0377","PERIOD":"95.438","ECCENTRICITY":"0.00018750","CLASSIFICATION_TYPE":"U","EPHEMERIS_TYPE":"0","TIME_SYSTEM":"UTC","GP_ID":"219844605","SEMIMAJOR_AXIS":"6917.891","SITE":"AFWTR"},{"INCLINATION":"53.2129","REF_FRAME":"TEME","REV_AT_EPOCH":"1060","PERIAPSIS":"415.816","OBJECT_ID":"2022-125L","ARG_OF_PERICENTER":"26.5387","DECAY_DATE":null,"MEAN_MOTION_DOT":"0.00050747","ELEMENT_SET_NO":"999","MEAN_MOTION":"15.49865570","CENTER_NAME":"EARTH","COUNTRY_CODE":"US","MEAN_ELEMENT_THEORY":"SGP4","MEAN_MOTION_DDOT":"0.0000000000000","RA_OF_ASC_NODE":"131.0546","NORAD_CAT_ID":"53974","OBJECT_TYPE":"PAYLOAD","OBJECT_NAME":"STARLINK-5159","MEAN_ANOMALY":"112.7019","FILE":"3685306","RCS_SIZE":"LARGE","TLE_LINE1":"1 53974U 22125L   22343.91667824  .00050747  00000-0  89687-3 0  9991","EPOCH":"2022-12-09T22:00:00.999936","APOAPSIS":"418.426","LAUNCH_DATE":"2022-10-05","TLE_LINE2":"2 53974  53.2129 131.0546 0001920  26.5387 112.7019 15.49865570 10603","BSTAR":"0.00089687000000","SITE":"AFWTR","SEMIMAJOR_AXIS":"6795.256","GP_ID":"219846169","TIME_SYSTEM":"UTC","CLASSIFICATION_TYPE":"U","ECCENTRICITY":"0.00019200","EPHEMERIS_TYPE":"0","PERIOD":"92.911"}];
